[{"OBJECT_NAME":"STARLINK-32347","OBJECT_ID":"2024-158W","EPOCH":"2026-03-09T08:56:34.727424","MEAN_MOTION":15.30192169,"ECCENTRICITY":0.00014204,"INCLINATION":53.161,"RA_OF_ASC_NODE":66.9345,"ARG_OF_PERICENTER":92.7786,"MEAN_ANOMALY":267.3378,"EPHEMERIS_TYPE":0,"CLASSIFICATION_TYPE":"U","NORAD_CAT_ID":61010,"ELEMENT_SET_NO":999,"REV_AT_EPOCH":8553,"BSTAR":1.1387344e-5,"MEAN_MOTION_DOT":-2.2e-7,"MEAN_MOTION_DDOT":0},{"OBJECT_NAME":"OBJECT H","OBJECT_ID":"2025-055H","EPOCH":"2026-03-09T23:29:50.051328","MEAN_MOTION":15.30330066,"ECCENTRICITY":0.00075967,"INCLINATION":97.636,"RA_OF_ASC_NODE":211.9572,"ARG_OF_PERICENTER":140.4354,"MEAN_ANOMALY":219.7441,"EPHEMERIS_TYPE":0,"CLASSIFICATION_TYPE":"U","NORAD_CAT_ID":63298,"ELEMENT_SET_NO":999,"REV_AT_EPOCH":5423,"BSTAR":0.0015582864,"MEAN_MOTION_DOT":0.00045901,"MEAN_MOTION_DDOT":0}]
